{
    "links": {
        "self": "http://www.neowsapp.com/rest/v1/neo/54017001?api_key=iIulBulltgU6a56xZRHN4H3l9WmuAYTsLGpBGhQ2"
    },
    "id": "54017001",
    "neo_reference_id": "54017001",
    "name": "(2020 JP1)",
    "designation": "2020 JP1",
    "nasa_jpl_url": "http://ssd.jpl.nasa.gov/sbdb.cgi?sstr=54017001",
    "absolute_magnitude_h": 22.233,
    "estimated_diameter": {
        "kilometers": {
            "estimated_diameter_min": 0.0950506249,
            "estimated_diameter_max": 0.2125396587
        },
        "meters": {
            "estimated_diameter_min": 95.0506249381,
            "estimated_diameter_max": 212.5396586654
        },
        "miles": {
            "estimated_diameter_min": 0.0590617019,
            "estimated_diameter_max": 0.1320659802
        },
        "feet": {
            "estimated_diameter_min": 311.8458923219,
            "estimated_diameter_max": 697.3086137358
        }
    },
    "is_potentially_hazardous_asteroid": false,
    "close_approach_data": [
        {
            "close_approach_date": "1976-04-20",
            "close_approach_date_full": "1976-Apr-20 20:13",
            "epoch_date_close_approach": 198879180000,
            "relative_velocity": {
                "kilometers_per_second": "7.2293343312",
                "kilometers_per_hour": "26025.6035924556",
                "miles_per_hour": "16171.2979655455"
            },
            "miss_distance": {
                "astronomical": "0.1891367681",
                "lunar": "73.5742027909",
                "kilometers": "28294457.646443947",
                "miles": "17581360.7229705886"
            },
            "orbiting_body": "Earth"
        },
        {
            "close_approach_date": "2003-05-05",
            "close_approach_date_full": "2003-May-05 06:48",
            "epoch_date_close_approach": 1052117280000,
            "relative_velocity": {
                "kilometers_per_second": "13.3583363876",
                "kilometers_per_hour": "48090.0109955303",
                "miles_per_hour": "29881.2626655282"
            },
            "miss_distance": {
                "astronomical": "0.3589759723",
                "lunar": "139.6416532247",
                "kilometers": "53702040.837259001",
                "miles": "33368900.8397801738"
            },
            "orbiting_body": "Earth"
        },
        {
            "close_approach_date": "2020-04-21",
            "close_approach_date_full": "2020-Apr-21 09:09",
            "epoch_date_close_approach": 1587460140000,
            "relative_velocity": {
                "kilometers_per_second": "7.119337804",
                "kilometers_per_hour": "25629.6160945608",
                "miles_per_hour": "15925.2467338675"
            },
            "miss_distance": {
                "astronomical": "0.2008484492",
                "lunar": "78.1300467388",
                "kilometers": "30046500.193123204",
                "miles": "18670029.4792360552"
            },
            "orbiting_body": "Earth"
        },
        {
            "close_approach_date": "2173-04-24",
            "close_approach_date_full": "2173-Apr-24 14:45",
            "epoch_date_close_approach": 6415944300000,
            "relative_velocity": {
                "kilometers_per_second": "7.5288484495",
                "kilometers_per_hour": "27103.8544180837",
                "miles_per_hour": "16841.2810966143"
            },
            "miss_distance": {
                "astronomical": "0.3554917581",
                "lunar": "138.2862939009",
                "kilometers": "53180809.814315247",
                "miles": "33045022.9005425286"
            },
            "orbiting_body": "Earth"
        },
        {
            "close_approach_date": "2190-04-23",
            "close_approach_date_full": "2190-Apr-23 18:33",
            "epoch_date_close_approach": 6952329180000,
            "relative_velocity": {
                "kilometers_per_second": "7.1728871571",
                "kilometers_per_hour": "25822.3937656973",
                "miles_per_hour": "16045.0312818023"
            },
            "miss_distance": {
                "astronomical": "0.2211504636",
                "lunar": "86.0275303404",
                "kilometers": "33083638.304072532",
                "miles": "20557219.5912116616"
            },
            "orbiting_body": "Earth"
        }
    ],
    "orbital_data": {
        "orbit_id": "18",
        "orbit_determination_date": "2020-07-04 08:52:18",
        "first_observation_date": "2020-05-13",
        "last_observation_date": "2020-06-17",
        "data_arc_in_days": 35,
        "observations_used": 89,
        "orbit_uncertainty": "6",
        "minimum_orbit_intersection": ".185516",
        "jupiter_tisserand_invariant": "3.431",
        "epoch_osculation": "2459000.5",
        "eccentricity": ".487428883786657",
        "semi_major_axis": "2.256940766404468",
        "inclination": "11.92857739854637",
        "ascending_node_longitude": "233.162373317253",
        "orbital_period": "1238.450544905558",
        "perihelion_distance": "1.156842647863336",
        "perihelion_argument": "322.4734523026935",
        "aphelion_distance": "3.357038884945599",
        "perihelion_time": "2458940.670767063122",
        "mean_anomaly": "17.39150904804086",
        "mean_motion": ".2906858101689099",
        "equinox": "J2000",
        "orbit_class": {
            "orbit_class_type": "AMO",
            "orbit_class_description": "Near-Earth asteroid orbits similar to that of 1221 Amor",
            "orbit_class_range": "1.017 AU < q (perihelion) < 1.3 AU"
        }
    },
    "is_sentry_object": false
}